start=new Date('2022-02-21T00:00:00.000Z').valueOf();
sats=[{"ARG_OF_PERICENTER":"11.4179","RA_OF_ASC_NODE":"111.8102","RCS_SIZE":"LARGE","DECAY_DATE":null,"SEMIMAJOR_AXIS":"6728.086","SITE":"AFETR","MEAN_MOTION_DDOT":"0.0000000000000","MEAN_MOTION_DOT":"0.00012162","CENTER_NAME":"EARTH","MEAN_ELEMENT_THEORY":"SGP4","ECCENTRICITY":"0.00032110","EPHEMERIS_TYPE":"0","EPOCH":"2022-02-20T22:00:00.999936","TIME_SYSTEM":"UTC","OBJECT_NAME":"STARLINK-3173","COUNTRY_CODE":"US","CLASSIFICATION_TYPE":"U","PERIAPSIS":"347.791","APOAPSIS":"352.112","FILE":"3310361","MEAN_ANOMALY":"285.7325","INCLINATION":"53.2144","MEAN_MOTION":"15.73132921","TLE_LINE1":"1 51111U 22005H   22051.91667824  .00012162  00000-0  91204-4 0  9993","TLE_LINE2":"2 51111  53.2144 111.8102 0003211  11.4179 285.7325 15.73132921  6499","REF_FRAME":"TEME","REV_AT_EPOCH":"649","OBJECT_ID":"2022-005H","ELEMENT_SET_NO":"999","BSTAR":"0.00009120400000","LAUNCH_DATE":"2022-01-19","OBJECT_TYPE":"PAYLOAD","NORAD_CAT_ID":"51111","GP_ID":"196486495","PERIOD":"91.537"},{"BSTAR":"0.00030057000000","ELEMENT_SET_NO":"999","REV_AT_EPOCH":"369","OBJECT_ID":"2022-005J","REF_FRAME":"TEME","TLE_LINE2":"2 51112  53.2140 111.8181 0003138  12.1612 281.1594 15.73171469  3698","MEAN_MOTION":"15.73171469","TLE_LINE1":"1 51112U 22005J   22051.91667824  .00041728  00000-0  30057-3 0  9992","INCLINATION":"53.2140","MEAN_ANOMALY":"281.1594","FILE":"3310556","PERIOD":"91.535","GP_ID":"196515812","NORAD_CAT_ID":"51112","OBJECT_TYPE":"PAYLOAD","LAUNCH_DATE":"2022-01-19","CENTER_NAME":"EARTH","MEAN_MOTION_DOT":"0.00041728","SITE":"AFETR","MEAN_MOTION_DDOT":"0.0000000000000","DECAY_DATE":null,"SEMIMAJOR_AXIS":"6727.977","RA_OF_ASC_NODE":"111.8181","RCS_SIZE":"LARGE","ARG_OF_PERICENTER":"12.1612","PERIAPSIS":"347.730","APOAPSIS":"351.953","COUNTRY_CODE":"US","CLASSIFICATION_TYPE":"U","OBJECT_NAME":"STARLINK-3374","TIME_SYSTEM":"UTC","EPOCH":"2022-02-20T22:00:00.999936","EPHEMERIS_TYPE":"0","ECCENTRICITY":"0.00031380","MEAN_ELEMENT_THEORY":"SGP4"},{"TLE_LINE1":"1 51113U 22005K   22051.91667824  .00023145  00000-0  16915-3 0  9993","MEAN_MOTION":"15.73159322","INCLINATION":"53.2147","MEAN_ANOMALY":"279.2543","FILE":"3310363","ELEMENT_SET_NO":"999","BSTAR":"0.00016915000000","OBJECT_ID":"2022-005K","REV_AT_EPOCH":"649","REF_FRAME":"TEME","TLE_LINE2":"2 51113  53.2147 111.8142 0002946  16.0315 279.2543 15.73159322  6499","NORAD_CAT_ID":"51113","OBJECT_TYPE":"PAYLOAD","LAUNCH_DATE":"2022-01-19","PERIOD":"91.536","GP_ID":"196486532","DECAY_DATE":null,"SEMIMAJOR_AXIS":"6728.011","RCS_SIZE":"LARGE","RA_OF_ASC_NODE":"111.8142","ARG_OF_PERICENTER":"16.0315","CENTER_NAME":"EARTH","MEAN_MOTION_DOT":"0.00023145","MEAN_MOTION_DDOT":"0.0000000000000","SITE":"AFETR","EPOCH":"2022-02-20T22:00:00.999936","EPHEMERIS_TYPE":"0","MEAN_ELEMENT_THEORY":"SGP4","ECCENTRICITY":"0.00029460","APOAPSIS":"351.858","PERIAPSIS":"347.894","COUNTRY_CODE":"US","CLASSIFICATION_TYPE":"U","OBJECT_NAME":"STARLINK-3372","TIME_SYSTEM":"UTC"},{"RCS_SIZE":"LARGE","RA_OF_ASC_NODE":"111.8215","ARG_OF_PERICENTER":"11.1883","SEMIMAJOR_AXIS":"6727.838","DECAY_DATE":null,"MEAN_MOTION_DDOT":"0.0000000000000","SITE":"AFETR","CENTER_NAME":"EARTH","MEAN_MOTION_DOT":"-0.00051823","EPHEMERIS_TYPE":"0","ECCENTRICITY":"0.00031480","MEAN_ELEMENT_THEORY":"SGP4","EPOCH":"2022-02-20T22:00:00.999936","COUNTRY_CODE":"US","CLASSIFICATION_TYPE":"U","TIME_SYSTEM":"UTC","OBJECT_NAME":"STARLINK-3375","APOAPSIS":"351.821","PERIAPSIS":"347.585","INCLINATION":"53.2147","MEAN_ANOMALY":"280.8879","FILE":"3310361","TLE_LINE1":"1 51114U 22005L   22051.91667824 -.00051823  00000-0 -36665-3 0  9994","MEAN_MOTION":"15.73219912","REF_FRAME":"TEME","TLE_LINE2":"2 51114  53.2147 111.8215 0003148  11.1883 280.8879 15.73219912  6494","ELEMENT_SET_NO":"999","BSTAR":"-0.00036665000000","OBJECT_ID":"2022-005L","REV_AT_EPOCH":"649","LAUNCH_DATE":"2022-01-19","NORAD_CAT_ID":"51114","OBJECT_TYPE":"PAYLOAD","GP_ID":"196486500","PERIOD":"91.532"},{"PERIOD":"91.534","GP_ID":"196516128","OBJECT_TYPE":"PAYLOAD","NORAD_CAT_ID":"51115","LAUNCH_DATE":"2022-01-19","OBJECT_ID":"2022-005M","REV_AT_EPOCH":"369","BSTAR":"0.00016217000000","ELEMENT_SET_NO":"999","TLE_LINE2":"2 51115  53.2146 111.8113 0003030  12.3136 284.2151 15.73186592  3692","REF_FRAME":"TEME","TLE_LINE1":"1 51115U 22005M   22051.91667824  .00022188  00000-0  16217-3 0  9996","MEAN_MOTION":"15.73186592","FILE":"3310556","INCLINATION":"53.2146","MEAN_ANOMALY":"284.2151","APOAPSIS":"351.837","PERIAPSIS":"347.760","OBJECT_NAME":"STARLINK-3397","TIME_SYSTEM":"UTC","COUNTRY_CODE":"US","CLASSIFICATION_TYPE":"U","EPOCH":"2022-02-20T22:00:00.999936","ECCENTRICITY":"0.00030300","MEAN_ELEMENT_THEORY":"SGP4","EPHEMERIS_TYPE":"0","MEAN_MOTION_DOT":"0.00022188","CENTER_NAME":"EARTH","MEAN_MOTION_DDOT":"0.0000000000000","SITE":"AFETR","DECAY_DATE":null,"SEMIMAJOR_AXIS":"6727.933","ARG_OF_PERICENTER":"12.3136","RCS_SIZE":"LARGE","RA_OF_ASC_NODE":"111.8113"},{"SITE":"AFETR","MEAN_MOTION_DDOT":"0.0000000000000","CENTER_NAME":"EARTH","MEAN_MOTION_DOT":"0.00030022","RA_OF_ASC_NODE":"111.8177","RCS_SIZE":"LARGE","ARG_OF_PERICENTER":"16.7683","DECAY_DATE":null,"SEMIMAJOR_AXIS":"6728.008","CLASSIFICATION_TYPE":"U","COUNTRY_CODE":"US","TIME_SYSTEM":"UTC","OBJECT_NAME":"STARLINK-3243","PERIAPSIS":"347.884","APOAPSIS":"351.861","EPHEMERIS_TYPE":"0","ECCENTRICITY":"0.00029550","MEAN_ELEMENT_THEORY":"SGP4","EPOCH":"2022-02-20T22:00:00.999936","REF_FRAME":"TEME","TLE_LINE2":"2 51116  53.2148 111.8177 0002955  16.7683 277.2332 15.73160597  6496","ELEMENT_SET_NO":"999","BSTAR":"0.00021790000000","REV_AT_EPOCH":"649","OBJECT_ID":"2022-005N","INCLINATION":"53.2148","MEAN_ANOMALY":"277.2332","FILE":"3310363","MEAN_MOTION":"15.73160597","TLE_LINE1":"1 51116U 22005N   22051.91667824  .00030022  00000-0  21790-3 0  9995","GP_ID":"196486527","PERIOD":"91.535","LAUNCH_DATE":"2022-01-19","NORAD_CAT_ID":"51116","OBJECT_TYPE":"PAYLOAD"},{"EPHEMERIS_TYPE":"0","MEAN_ELEMENT_THEORY":"SGP4","ECCENTRICITY":"0.00031740","EPOCH":"2022-02-20T22:00:00.999936","CLASSIFICATION_TYPE":"U","COUNTRY_CODE":"US","TIME_SYSTEM":"UTC","OBJECT_NAME":"STARLINK-3391","PERIAPSIS":"347.656","APOAPSIS":"351.927","RA_OF_ASC_NODE":"111.8067","RCS_SIZE":"LARGE","ARG_OF_PERICENTER":"14.1266","SEMIMAJOR_AXIS":"6727.926","DECAY_DATE":null,"SITE":"AFETR","MEAN_MOTION_DDOT":"0.0000000000000","CENTER_NAME":"EARTH","MEAN_MOTION_DOT":"0.00027236","LAUNCH_DATE":"2022-01-19","NORAD_CAT_ID":"51117","OBJECT_TYPE":"PAYLOAD","GP_ID":"196487013","PERIOD":"91.534","MEAN_ANOMALY":"284.9230","INCLINATION":"53.2144","FILE":"3310362","MEAN_MOTION":"15.73189106","TLE_LINE1":"1 51117U 22005P   22051.91667824  .00027236  00000-0  19791-3 0  9997","REF_FRAME":"TEME","TLE_LINE2":"2 51117  53.2144 111.8067 0003174  14.1266 284.9230 15.73189106  6493","ELEMENT_SET_NO":"999","BSTAR":"0.00019791000000","REV_AT_EPOCH":"649","OBJECT_ID":"2022-005P"},{"ELEMENT_SET_NO":"999","BSTAR":"0.00009558800000","OBJECT_ID":"2022-005Q","REV_AT_EPOCH":"369","REF_FRAME":"TEME","TLE_LINE2":"2 51118  53.2134 111.8148 0003173   7.1220 288.7822 15.73170140  3690","TLE_LINE1":"1 51118U 22005Q   22051.91667824  .00012799  00000-0  95588-4 0  9995","MEAN_MOTION":"15.73170140","MEAN_ANOMALY":"288.7822","INCLINATION":"53.2134","FILE":"3310556","PERIOD":"91.535","GP_ID":"196516061","NORAD_CAT_ID":"51118","OBJECT_TYPE":"PAYLOAD","LAUNCH_DATE":"2022-01-19","CENTER_NAME":"EARTH","MEAN_MOTION_DOT":"0.00012799","MEAN_MOTION_DDOT":"0.0000000000000","SITE":"AFETR","DECAY_DATE":null,"SEMIMAJOR_AXIS":"6727.980","RCS_SIZE":"LARGE","RA_OF_ASC_NODE":"111.8148","ARG_OF_PERICENTER":"7.1220","APOAPSIS":"351.980","PERIAPSIS":"347.711","COUNTRY_CODE":"US","CLASSIFICATION_TYPE":"U","OBJECT_NAME":"STARLINK-3394","TIME_SYSTEM":"UTC","EPOCH":"2022-02-20T22:00:00.999936","EPHEMERIS_TYPE":"0","MEAN_ELEMENT_THEORY":"SGP4","ECCENTRICITY":"0.00031730"},{"LAUNCH_DATE":"2022-01-19","OBJECT_TYPE":"PAYLOAD","NORAD_CAT_ID":"51119","GP_ID":"196515785","PERIOD":"91.531","FILE":"3310556","MEAN_ANOMALY":"288.2233","INCLINATION":"53.2156","MEAN_MOTION":"15.73231356","TLE_LINE1":"1 51119U 22005R   22051.91667824 -.00036314  00000-0 -25502-3 0  9995","TLE_LINE2":"2 51119  53.2156 111.8046 0002780  11.4133 288.2233 15.73231356  3694","REF_FRAME":"TEME","REV_AT_EPOCH":"369","OBJECT_ID":"2022-005R","ELEMENT_SET_NO":"999","BSTAR":"-0.00025502000000","MEAN_ELEMENT_THEORY":"SGP4","ECCENTRICITY":"0.00027800","EPHEMERIS_TYPE":"0","EPOCH":"2022-02-20T22:00:00.999936","TIME_SYSTEM":"UTC","OBJECT_NAME":"STARLINK-3390","COUNTRY_CODE":"US","CLASSIFICATION_TYPE":"U","PERIAPSIS":"347.800","APOAPSIS":"351.541","ARG_OF_PERICENTER":"11.4133","RA_OF_ASC_NODE":"111.8046","RCS_SIZE":"LARGE","DECAY_DATE":null,"SEMIMAJOR_AXIS":"6727.806","SITE":"AFETR","MEAN_MOTION_DDOT":"0.0000000000000","MEAN_MOTION_DOT":"-0.00036314","CENTER_NAME":"EARTH"},{"MEAN_ANOMALY":"286.4704","INCLINATION":"53.2146","FILE":"3310364","TLE_LINE1":"1 51120U 22005S   22051.91667824  .00008816  00000-0  67279-4 0  9999","MEAN_MOTION":"15.73161401","REF_FRAME":"TEME","TLE_LINE2":"2 51120  53.2146 111.8026 0002901  14.4935 286.4704 15.73161401  6498","ELEMENT_SET_NO":"999","BSTAR":"0.00006727900000","OBJECT_ID":"2022-005S","REV_AT_EPOCH":"649","LAUNCH_DATE":"2022-01-19","NORAD_CAT_ID":"51120","OBJECT_TYPE":"PAYLOAD","GP_ID":"196486549","PERIOD":"91.535","RCS_SIZE":"LARGE","RA_OF_ASC_NODE":"111.8026","ARG_OF_PERICENTER":"14.4935","DECAY_DATE":null,"SEMIMAJOR_AXIS":"6728.005","MEAN_MOTION_DDOT":"0.0000000000000","SITE":"AFETR","CENTER_NAME":"EARTH","MEAN_MOTION_DOT":"0.00008816","EPHEMERIS_TYPE":"0","MEAN_ELEMENT_THEORY":"SGP4","ECCENTRICITY":"0.00029010","EPOCH":"2022-02-20T22:00:00.999936","COUNTRY_CODE":"US","CLASSIFICATION_TYPE":"U","TIME_SYSTEM":"UTC","OBJECT_NAME":"STARLINK-3398","APOAPSIS":"351.822","PERIAPSIS":"347.918"}];
